[{"OBJECT_NAME":"STARLINK-36785","OBJECT_ID":"2026-034D","EPOCH":"2026-03-17T16:40:51.030048","MEAN_MOTION":15.81105538,"ECCENTRICITY":9.289e-5,"INCLINATION":53.1583,"RA_OF_ASC_NODE":171.2112,"ARG_OF_PERICENTER":181.8459,"MEAN_ANOMALY":178.256,"EPHEMERIS_TYPE":0,"CLASSIFICATION_TYPE":"U","NORAD_CAT_ID":67853,"ELEMENT_SET_NO":999,"REV_AT_EPOCH":520,"BSTAR":0.0018620649,"MEAN_MOTION_DOT":0.00387956,"MEAN_MOTION_DDOT":0},{"OBJECT_NAME":"STARLINK-36608","OBJECT_ID":"2026-034E","EPOCH":"2026-03-17T18:10:48.478656","MEAN_MOTION":15.80925059,"ECCENTRICITY":0.00011835,"INCLINATION":53.1585,"RA_OF_ASC_NODE":170.8889,"ARG_OF_PERICENTER":39.4554,"MEAN_ANOMALY":320.6554,"EPHEMERIS_TYPE":0,"CLASSIFICATION_TYPE":"U","NORAD_CAT_ID":67854,"ELEMENT_SET_NO":999,"REV_AT_EPOCH":520,"BSTAR":0.0013817921,"MEAN_MOTION_DOT":0.00281784,"MEAN_MOTION_DDOT":0},{"OBJECT_NAME":"STARLINK-36838","OBJECT_ID":"2026-034F","EPOCH":"2026-03-17T18:09:43.680384","MEAN_MOTION":15.80910899,"ECCENTRICITY":0.00014622,"INCLINATION":53.1589,"RA_OF_ASC_NODE":170.8833,"ARG_OF_PERICENTER":81.2632,"MEAN_ANOMALY":278.8556,"EPHEMERIS_TYPE":0,"CLASSIFICATION_TYPE":"U","NORAD_CAT_ID":67855,"ELEMENT_SET_NO":999,"REV_AT_EPOCH":521,"BSTAR":0.0016088521,"MEAN_MOTION_DOT":0.00329841,"MEAN_MOTION_DDOT":0},{"OBJECT_NAME":"STARLINK-36843","OBJECT_ID":"2026-034G","EPOCH":"2026-03-17T15:05:29.636736","MEAN_MOTION":15.8090763,"ECCENTRICITY":0.00012556,"INCLINATION":53.1583,"RA_OF_ASC_NODE":171.5075,"ARG_OF_PERICENTER":66.407,"MEAN_ANOMALY":293.7085,"EPHEMERIS_TYPE":0,"CLASSIFICATION_TYPE":"U","NORAD_CAT_ID":67856,"ELEMENT_SET_NO":999,"REV_AT_EPOCH":519,"BSTAR":0.00085208596,"MEAN_MOTION_DOT":0.00171121,"MEAN_MOTION_DDOT":0},{"OBJECT_NAME":"STARLINK-36828","OBJECT_ID":"2026-034H","EPOCH":"2026-03-18T01:43:49.262880","MEAN_MOTION":15.80972524,"ECCENTRICITY":0.00022446,"INCLINATION":53.1557,"RA_OF_ASC_NODE":169.2942,"ARG_OF_PERICENTER":122.4673,"MEAN_ANOMALY":237.6567,"EPHEMERIS_TYPE":0,"CLASSIFICATION_TYPE":"U","NORAD_CAT_ID":67857,"ELEMENT_SET_NO":999,"REV_AT_EPOCH":526,"BSTAR":0.0012021981,"MEAN_MOTION_DOT":0.00244544,"MEAN_MOTION_DDOT":0},{"OBJECT_NAME":"STARLINK-36837","OBJECT_ID":"2026-034J","EPOCH":"2026-03-17T16:35:26.938464","MEAN_MOTION":15.80906163,"ECCENTRICITY":6.343e-5,"INCLINATION":53.1584,"RA_OF_ASC_NODE":171.1852,"ARG_OF_PERICENTER":86.8888,"MEAN_ANOMALY":273.2207,"EPHEMERIS_TYPE":0,"CLASSIFICATION_TYPE":"U","NORAD_CAT_ID":67858,"ELEMENT_SET_NO":999,"REV_AT_EPOCH":520,"BSTAR":0.00075566882,"MEAN_MOTION_DOT":0.00151318,"MEAN_MOTION_DDOT":0},{"OBJECT_NAME":"STARLINK-36393","OBJECT_ID":"2026-034K","EPOCH":"2026-03-18T06:13:41.281248","MEAN_MOTION":15.80903384,"ECCENTRICITY":0.00016739,"INCLINATION":53.1582,"RA_OF_ASC_NODE":168.329,"ARG_OF_PERICENTER":42.378,"MEAN_ANOMALY":317.7371,"EPHEMERIS_TYPE":0,"CLASSIFICATION_TYPE":"U","NORAD_CAT_ID":67859,"ELEMENT_SET_NO":999,"REV_AT_EPOCH":529,"BSTAR":0.0018901127,"MEAN_MOTION_DOT":0.0039025,"MEAN_MOTION_DDOT":0},{"OBJECT_NAME":"STARLINK-35873","OBJECT_ID":"2026-034L","EPOCH":"2026-03-17T10:29:08.381184","MEAN_MOTION":15.81045705,"ECCENTRICITY":0.00015639,"INCLINATION":53.1585,"RA_OF_ASC_NODE":172.4417,"ARG_OF_PERICENTER":163.405,"MEAN_ANOMALY":196.7024,"EPHEMERIS_TYPE":0,"CLASSIFICATION_TYPE":"U","NORAD_CAT_ID":67860,"ELEMENT_SET_NO":999,"REV_AT_EPOCH":519,"BSTAR":0.002195435,"MEAN_MOTION_DOT":0.00460151,"MEAN_MOTION_DDOT":0},{"OBJECT_NAME":"STARLINK-36325","OBJECT_ID":"2026-034M","EPOCH":"2026-03-18T04:40:29.540640","MEAN_MOTION":15.80870718,"ECCENTRICITY":0.00015522,"INCLINATION":53.1581,"RA_OF_ASC_NODE":168.6354,"ARG_OF_PERICENTER":129.7919,"MEAN_ANOMALY":230.3241,"EPHEMERIS_TYPE":0,"CLASSIFICATION_TYPE":"U","NORAD_CAT_ID":67861,"ELEMENT_SET_NO":999,"REV_AT_EPOCH":528,"BSTAR":0.0016285035,"MEAN_MOTION_DOT":0.00333401,"MEAN_MOTION_DDOT":0},{"OBJECT_NAME":"STARLINK-36332","OBJECT_ID":"2026-034N","EPOCH":"2026-03-17T16:31:08.217120","MEAN_MOTION":15.80933992,"ECCENTRICITY":0.00018619,"INCLINATION":53.1584,"RA_OF_ASC_NODE":171.1651,"ARG_OF_PERICENTER":68.3163,"MEAN_ANOMALY":291.8058,"EPHEMERIS_TYPE":0,"CLASSIFICATION_TYPE":"U","NORAD_CAT_ID":67862,"ELEMENT_SET_NO":999,"REV_AT_EPOCH":520,"BSTAR":0.002235415,"MEAN_MOTION_DOT":0.00466481,"MEAN_MOTION_DDOT":0},{"OBJECT_NAME":"STARLINK-36835","OBJECT_ID":"2026-034P","EPOCH":"2026-03-17T16:30:02.832192","MEAN_MOTION":15.80971349,"ECCENTRICITY":0.0002071,"INCLINATION":53.1592,"RA_OF_ASC_NODE":171.1593,"ARG_OF_PERICENTER":61.3254,"MEAN_ANOMALY":298.7976,"EPHEMERIS_TYPE":0,"CLASSIFICATION_TYPE":"U","NORAD_CAT_ID":67863,"ELEMENT_SET_NO":999,"REV_AT_EPOCH":520,"BSTAR":0.002275712,"MEAN_MOTION_DOT":0.00476263,"MEAN_MOTION_DDOT":0},{"OBJECT_NAME":"STARLINK-36831","OBJECT_ID":"2026-034Q","EPOCH":"2026-03-17T10:24:49.195872","MEAN_MOTION":15.80965192,"ECCENTRICITY":0.00022841,"INCLINATION":53.1583,"RA_OF_ASC_NODE":172.4219,"ARG_OF_PERICENTER":11.7343,"MEAN_ANOMALY":348.3733,"EPHEMERIS_TYPE":0,"CLASSIFICATION_TYPE":"U","NORAD_CAT_ID":67864,"ELEMENT_SET_NO":999,"REV_AT_EPOCH":516,"BSTAR":0.001420237,"MEAN_MOTION_DOT":0.0029048,"MEAN_MOTION_DDOT":0},{"OBJECT_NAME":"STARLINK-36738","OBJECT_ID":"2026-034R","EPOCH":"2026-03-17T17:58:54.799968","MEAN_MOTION":15.80974046,"ECCENTRICITY":5.573e-5,"INCLINATION":53.1585,"RA_OF_ASC_NODE":170.8326,"ARG_OF_PERICENTER":102.2947,"MEAN_ANOMALY":257.8138,"EPHEMERIS_TYPE":0,"CLASSIFICATION_TYPE":"U","NORAD_CAT_ID":67865,"ELEMENT_SET_NO":999,"REV_AT_EPOCH":521,"BSTAR":0.00094429228,"MEAN_MOTION_DOT":0.00190736,"MEAN_MOTION_DDOT":0},{"OBJECT_NAME":"STARLINK-36780","OBJECT_ID":"2026-034S","EPOCH":"2026-03-18T06:06:07.613856","MEAN_MOTION":15.8093768,"ECCENTRICITY":0.00014131,"INCLINATION":53.1589,"RA_OF_ASC_NODE":168.2915,"ARG_OF_PERICENTER":56.7784,"MEAN_ANOMALY":303.3374,"EPHEMERIS_TYPE":0,"CLASSIFICATION_TYPE":"U","NORAD_CAT_ID":67866,"ELEMENT_SET_NO":999,"REV_AT_EPOCH":529,"BSTAR":0.0011704231,"MEAN_MOTION_DOT":0.00237475,"MEAN_MOTION_DDOT":0},{"OBJECT_NAME":"STARLINK-36761","OBJECT_ID":"2026-034T","EPOCH":"2026-03-17T13:23:39.179904","MEAN_MOTION":15.80908302,"ECCENTRICITY":9.982e-5,"INCLINATION":53.1593,"RA_OF_ASC_NODE":171.7715,"ARG_OF_PERICENTER":43.246,"MEAN_ANOMALY":316.8641,"EPHEMERIS_TYPE":0,"CLASSIFICATION_TYPE":"U","NORAD_CAT_ID":67867,"ELEMENT_SET_NO":999,"REV_AT_EPOCH":518,"BSTAR":0.001501529,"MEAN_MOTION_DOT":0.00306933,"MEAN_MOTION_DDOT":0},{"OBJECT_NAME":"STARLINK-36762","OBJECT_ID":"2026-034U","EPOCH":"2026-03-17T16:24:38.689632","MEAN_MOTION":15.80934386,"ECCENTRICITY":8.895e-5,"INCLINATION":53.1596,"RA_OF_ASC_NODE":171.1342,"ARG_OF_PERICENTER":13.0871,"MEAN_ANOMALY":347.0174,"EPHEMERIS_TYPE":0,"CLASSIFICATION_TYPE":"U","NORAD_CAT_ID":67868,"ELEMENT_SET_NO":999,"REV_AT_EPOCH":520,"BSTAR":0.0012962703,"MEAN_MOTION_DOT":0.00263861,"MEAN_MOTION_DDOT":0}]
