STARLINK-36785          
1 67853U 26034D   26076.69503507  .00387956  00000+0  18621-2 0  9997
2 67853  53.1583 171.2112 0000928 181.8459 178.2560 15.81105538  5209
STARLINK-36608          
1 67854U 26034E   26076.75750554  .00281784  00000+0  13818-2 0  9996
2 67854  53.1585 170.8889 0001183  39.4554 320.6554 15.80925059  5209
STARLINK-36838          
1 67855U 26034F   26076.75675556  .00329841  00000+0  16089-2 0  9995
2 67855  53.1589 170.8833 0001462  81.2632 278.8556 15.80910899  5218
STARLINK-36843          
1 67856U 26034G   26076.62881524  .00171121  00000+0  85209-3 0  9993
2 67856  53.1583 171.5075 0001255  66.4070 293.7085 15.80907630  5199
STARLINK-36828          
1 67857U 26034H   26077.07209795  .00244544  00000+0  12022-2 0  9990
2 67857  53.1557 169.2942 0002244 122.4673 237.6567 15.80972524  5263
STARLINK-36837          
1 67858U 26034J   26076.69128401  .00151318  00000+0  75567-3 0  9992
2 67858  53.1584 171.1852 0000634  86.8888 273.2207 15.80906163  5205
STARLINK-36393          
1 67859U 26034K   26077.25950557  .00390250  00000+0  18901-2 0  9999
2 67859  53.1582 168.3290 0001673  42.3780 317.7371 15.80903384  5297
STARLINK-35873          
1 67860U 26034L   26076.43690256  .00460151  00000+0  21954-2 0  9997
2 67860  53.1585 172.4417 0001563 163.4050 196.7024 15.81045705  5196
STARLINK-36325          
1 67861U 26034M   26077.19478635  .00333401  00000+0  16285-2 0  9995
2 67861  53.1581 168.6354 0001552 129.7919 230.3241 15.80870718  5282
STARLINK-36332          
1 67862U 26034N   26076.68828955  .00466481  00000+0  22354-2 0  9992
2 67862  53.1584 171.1651 0001861  68.3163 291.8058 15.80933992  5201
STARLINK-36835          
1 67863U 26034P   26076.68753278  .00476263  00000+0  22757-2 0  9994
2 67863  53.1592 171.1593 0002071  61.3254 298.7976 15.80971349  5207
STARLINK-36831          
1 67864U 26034Q   26076.43390273  .00290480  00000+0  14202-2 0  9991
2 67864  53.1583 172.4219 0002284  11.7343 348.3733 15.80965192  5168
STARLINK-36738          
1 67865U 26034R   26076.74924537  .00190736  00000+0  94429-3 0  9995
2 67865  53.1585 170.8326 0000557 102.2947 257.8138 15.80974046  5216
STARLINK-36780          
1 67866U 26034S   26077.25425479  .00237475  00000+0  11704-2 0  9990
2 67866  53.1589 168.2915 0001413  56.7784 303.3374 15.80937680  5290
STARLINK-36761          
1 67867U 26034T   26076.55809236  .00306933  00000+0  15015-2 0  9995
2 67867  53.1593 171.7715 0000998  43.2460 316.8641 15.80908302  5185
STARLINK-36762          
1 67868U 26034U   26076.68378113  .00263861  00000+0  12963-2 0  9996
2 67868  53.1596 171.1342 0000889  13.0871 347.0174 15.80934386  5200
